{
  "norad_id": 57813,
  "name": "STARLINK-30403",
  "history": [
    {
      "epoch": "2026-03-28T19:41:43.111104Z",
      "apogee_km": 484.07567623540945,
      "perigee_km": 481.8912327051157,
      "latitude_deg": 4.964790079156615e-05,
      "longitude_deg": 4.51832985943901,
      "height_km": 482.74107413023444,
      "semi_major_axis_km": 6861.120454470262,
      "eccentricity": 0.00015919,
      "inclination_deg": 43.0041,
      "raan_deg": 126.1835,
      "arg_perigee_deg": 271.033,
      "mean_anomaly_deg": 89.034,
      "mean_motion_rev_day": 15.27601922
    },
    {
      "epoch": "2026-03-29T03:32:30.415200Z",
      "apogee_km": 484.2062980025148,
      "perigee_km": 481.8570338513018,
      "latitude_deg": 8.507997234343399e-06,
      "longitude_deg": -115.35015761285064,
      "height_km": 482.99088739764073,
      "semi_major_axis_km": 6861.168665926908,
      "eccentricity": 0.0001712,
      "inclination_deg": 43.0036,
      "raan_deg": 124.3344,
      "arg_perigee_deg": 261.091,
      "mean_anomaly_deg": 98.9748,
      "mean_motion_rev_day": 15.27585821
    }
  ]
}